[{"OBJECT_NAME":"OBJECT A","OBJECT_ID":"2024-203A","EPOCH":"2026-03-09T23:31:20.812800","MEAN_MOTION":15.27300571,"ECCENTRICITY":0.00108989,"INCLINATION":97.4288,"RA_OF_ASC_NODE":139.5608,"ARG_OF_PERICENTER":322.6893,"MEAN_ANOMALY":37.3588,"EPHEMERIS_TYPE":0,"CLASSIFICATION_TYPE":"U","NORAD_CAT_ID":61869,"ELEMENT_SET_NO":999,"REV_AT_EPOCH":7380,"BSTAR":0.00061472876,"MEAN_MOTION_DOT":0.00016411,"MEAN_MOTION_DDOT":0},{"OBJECT_NAME":"STARLINK-36478","OBJECT_ID":"2026-003T","EPOCH":"2026-03-09T11:12:39.787488","MEAN_MOTION":15.27580731,"ECCENTRICITY":0.00012155,"INCLINATION":42.9982,"RA_OF_ASC_NODE":227.9872,"ARG_OF_PERICENTER":264.7832,"MEAN_ANOMALY":95.2881,"EPHEMERIS_TYPE":0,"CLASSIFICATION_TYPE":"U","NORAD_CAT_ID":67351,"ELEMENT_SET_NO":999,"REV_AT_EPOCH":879,"BSTAR":0.00096566918,"MEAN_MOTION_DOT":0.00026407,"MEAN_MOTION_DDOT":0}]
